{
"type": "FeatureCollection",
"name": "riverine",
"crs": { "type": "name", "properties": { "name": "urn:ogc:def:crs:OGC:1.3:CRS84" } },
"features": [
{ "type": "Feature", "properties": { "zone_type": "riverine_lowland", "elev_threshold_ft": 450, "buffer_m": 200, "risk_tier": "critical" }, "geometry": { "type": "Polygon", "coordinates": [ [ [ -86.495517537685359, 36.980959593528041 ], [ -86.495845236722658, 36.980668133998819 ], [ -86.496382936513569, 36.980365152135683 ], [ -86.497206186178175, 36.980103581273568 ], [ -86.497783636418518, 36.980032954734902 ], [ -86.498412574335987, 36.980056251936354 ], [ -86.499058146218516, 36.980232287828194 ], [ -86.499438823338593, 36.980433021193505 ], [ -86.499894964960916, 36.980836116888518 ], [ -86.500231355012744, 36.981500612170933 ], [ -86.500231037395125, 36.982191693848314 ], [ -86.499940020945019, 36.982795660086687 ], [ -86.49941361735064, 36.984555524787631 ], [ -86.499285464561254, 36.985629132916721 ], [ -86.498843319644919, 36.986389375031003 ], [ -86.500786373451277, 36.986828879965032 ], [ -86.501555326282883, 36.98725466582647 ], [ -86.501946244958333, 36.987709602338875 ], [ -86.502145968656137, 36.988231926163543 ], [ -86.50216573765114, 36.988601404306543 ], [ -86.502020386484034, 36.989140205208315 ], [ -86.501693108210887, 36.98960430366472 ], [ -86.501385680762311, 36.989862513795728 ], [ -86.500885539259968, 36.990123387713936 ], [ -86.500383150001369, 36.990259754019682 ], [ -86.499509700661903, 36.990305240753365 ], [ -86.499003343781467, 36.990248190435942 ], [ -86.497291793904125, 36.990469037834721 ], [ -86.496048288078214, 36.990342088821627 ], [ -86.495836007717728, 36.990405417436165 ], [ -86.495346777748253, 36.991237320220982 ], [ -86.494860820034489, 36.991736164744367 ], [ -86.494911934429595, 36.992598331136307 ], [ -86.494817901163302, 36.993135498716192 ], [ -86.494528926202804, 36.993625914892931 ], [ -86.494071167297534, 36.99402518192403 ], [ -86.493271642210175, 36.994354885592941 ], [ -86.491975152531737, 36.994439987064268 ], [ -86.491484108649644, 36.994719767728093 ], [ -86.49086801009048, 36.994908678793514 ], [ -86.490210073282995, 36.994945996886912 ], [ -86.489566963135061, 36.994828508012844 ], [ -86.488994067328704, 36.994566330923426 ], [ -86.488540725201176, 36.994182045465827 ], [ -86.487883666936256, 36.992944146936374 ], [ -86.48771442967066, 36.991891908915122 ], [ -86.487752164406089, 36.991539788633929 ], [ -86.487930630630018, 36.991102542548433 ], [ -86.487730900797359, 36.990685351942993 ], [ -86.48767144522796, 36.990158442112687 ], [ -86.488164697460974, 36.988669548060905 ], [ -86.488580854214959, 36.988144045077185 ], [ -86.488793908780266, 36.987538780572329 ], [ -86.489158391155598, 36.987105988442551 ], [ -86.489201218228473, 36.986546573198723 ], [ -86.489449843674137, 36.985702188885099 ], [ -86.489398861160666, 36.98523379183429 ], [ -86.489460827936, 36.984889080874325 ], [ -86.489704962804367, 36.98440586617928 ], [ -86.490022491961824, 36.984072041888147 ], [ -86.489801931616384, 36.983637381632128 ], [ -86.4882420796486, 36.982557856856225 ], [ -86.487484281163418, 36.981612895557802 ], [ -86.486040166213073, 36.980795528910186 ], [ -86.485582739352466, 36.980451660108557 ], [ -86.485250117216893, 36.979999903190297 ], [ -86.485124400580077, 36.979662798098488 ], [ -86.485082280759713, 36.979317984248901 ], [ -86.485174356067432, 36.978804575623116 ], [ -86.485571136289579, 36.978192706905787 ], [ -86.486225253748188, 36.977745151648108 ], [ -86.487040970415975, 36.977527412703758 ], [ -86.487868416982806, 36.977563525315929 ], [ -86.488971621887615, 36.977942713787861 ], [ -86.49072351664239, 36.978915249091365 ], [ -86.49144900824237, 36.979602710237721 ], [ -86.49186414775869, 36.979834894144524 ], [ -86.492762791851263, 36.980146713398483 ], [ -86.493383272607105, 36.980682219527679 ], [ -86.494189971356008, 36.981102056088076 ], [ -86.494573466634449, 36.981522261091115 ], [ -86.494754908045337, 36.98189323095383 ], [ -86.494907534878777, 36.981976436265668 ], [ -86.495517537685359, 36.980959593528041 ] ] ] } },
{ "type": "Feature", "properties": { "zone_type": "riverine_lowland", "elev_threshold_ft": 450, "buffer_m": 200, "risk_tier": "critical" }, "geometry": { "type": "Polygon", "coordinates": [ [ [ -86.482399579762728, 36.987942861928495 ], [ -86.483251198786235, 36.988283518788833 ], [ -86.484059908179177, 36.988505023687566 ], [ -86.484971999293535, 36.989078691240252 ], [ -86.485447279018786, 36.989740188835796 ], [ -86.485542988115824, 36.99008516775374 ], [ -86.485525542678431, 36.990614046459918 ], [ -86.485208379801037, 36.991269860122912 ], [ -86.484679190517426, 36.991730562143111 ], [ -86.484749921813957, 36.992679724384878 ], [ -86.484664324269659, 36.993517755044692 ], [ -86.48449576873567, 36.993955235923345 ], [ -86.48376233647538, 36.995083133095221 ], [ -86.483702938939928, 36.996593481902636 ], [ -86.483497027065283, 36.99705214463885 ], [ -86.483037179076845, 36.997720297307694 ], [ -86.482438374876139, 36.998236878555076 ], [ -86.481537035323356, 36.99857838348003 ], [ -86.480890001595256, 36.998681206869996 ], [ -86.479814845084306, 36.998670712724952 ], [ -86.479194310954966, 36.998491319411059 ], [ -86.477572938228789, 36.997653577442932 ], [ -86.47713126217495, 36.997282907896135 ], [ -86.476777018125986, 36.996663086579552 ], [ -86.476741926862346, 36.995945984441384 ], [ -86.477068635581588, 36.995258554924717 ], [ -86.477834315532945, 36.994629297929251 ], [ -86.478665206879612, 36.994316647971047 ], [ -86.47847102191794, 36.993943579042515 ], [ -86.478387768379861, 36.993547760919469 ], [ -86.478557334869208, 36.992466170569735 ], [ -86.477666077271422, 36.991837659713475 ], [ -86.477167191321257, 36.991008892672681 ], [ -86.477077132817158, 36.990461878619406 ], [ -86.477186707557209, 36.989922616439927 ], [ -86.477088862216718, 36.989590632737603 ], [ -86.477091658554201, 36.989081566632869 ], [ -86.477369072828012, 36.988442193011664 ], [ -86.477985685984521, 36.987814802594357 ], [ -86.478482059897829, 36.987475389824411 ], [ -86.479038708687142, 36.987260217735553 ], [ -86.479718014064588, 36.987170779058289 ], [ -86.480370175313425, 36.98724317982942 ], [ -86.481502030680716, 36.987748751503425 ], [ -86.482399579762728, 36.987942861928495 ] ] ] } },
{ "type": "Feature", "properties": { "zone_type": "riverine_lowland", "elev_threshold_ft": 450, "buffer_m": 200, "risk_tier": "critical" }, "geometry": { "type": "Polygon", "coordinates": [ [ [ -86.469857904013722, 37.002751919644915 ], [ -86.471511232927469, 37.001597211756788 ], [ -86.472256591635016, 37.001249404774683 ], [ -86.473425188891028, 37.001019439060904 ], [ -86.473864392392528, 37.001047943511111 ], [ -86.474489245870558, 37.00121746558775 ], [ -86.475025843044051, 37.001525166817423 ], [ -86.475427973739798, 37.001944549634821 ], [ -86.475661005703316, 37.002439498544739 ], [ -86.475764559324531, 37.002960775464871 ], [ -86.476486843597712, 37.003494356851128 ], [ -86.47683410102708, 37.004140304691482 ], [ -86.4768985065122, 37.005374754236271 ], [ -86.476622663935558, 37.006884014202662 ], [ -86.476802384270968, 37.007545437867272 ], [ -86.476715413757987, 37.008177997028163 ], [ -86.476814926453073, 37.00853704480258 ], [ -86.476814688738813, 37.009187111802483 ], [ -86.477174688754118, 37.009848130346136 ], [ -86.477259770844043, 37.010347287969822 ], [ -86.477167793522455, 37.011016491217838 ], [ -86.477255826918807, 37.011616808154869 ], [ -86.477226326805521, 37.012628209662147 ], [ -86.476834076133528, 37.013416007898577 ], [ -86.476274331205062, 37.013904551441726 ], [ -86.476656784105217, 37.01503342753562 ], [ -86.476541160141764, 37.015789513652216 ], [ -86.476207110329653, 37.016292484923305 ], [ -86.475636009358141, 37.016734060161632 ], [ -86.474701152381144, 37.017085866416416 ], [ -86.474186484916729, 37.017164861510615 ], [ -86.474484367838116, 37.018646902417046 ], [ -86.474335970554421, 37.019340194561707 ], [ -86.473867995578061, 37.019935174318583 ], [ -86.472990343707977, 37.020423112715733 ], [ -86.472523273667932, 37.021199161894309 ], [ -86.471957670165594, 37.021663451471028 ], [ -86.471156522505964, 37.021950067714933 ], [ -86.469921287545446, 37.021994799717184 ], [ -86.469064620922936, 37.021843229231543 ], [ -86.468449443679503, 37.021519082672754 ], [ -86.467641940425565, 37.021684470210197 ], [ -86.466785193162522, 37.021593747998956 ], [ -86.46619436411163, 37.021351496482943 ], [ -86.465702068596016, 37.020965400729132 ], [ -86.465412783702149, 37.020577161669749 ], [ -86.465064552720605, 37.01973852586778 ], [ -86.464897142955365, 37.019717534370614 ], [ -86.464249262472748, 37.019894592568015 ], [ -86.463772196018809, 37.019939863565398 ], [ -86.463156900970645, 37.019876540985024 ], [ -86.462616715827977, 37.019692874536908 ], [ -86.462337303230129, 37.019767058036578 ], [ -86.461489888623447, 37.020522967003252 ], [ -86.460995447966724, 37.020825059937927 ], [ -86.460188293065201, 37.02104263444074 ], [ -86.459462335404567, 37.021030137875471 ], [ -86.459011711747138, 37.020938088968478 ], [ -86.458150084937969, 37.020615918682211 ], [ -86.457512913241729, 37.020202072993179 ], [ -86.456688960067041, 37.020056139851064 ], [ -86.456044006393697, 37.019758315528222 ], [ -86.455301263634567, 37.019558528288449 ], [ -86.454403821358483, 37.019052477217556 ], [ -86.453371956258707, 37.018880066082637 ], [ -86.453031419972334, 37.018955983938966 ], [ -86.452257150867695, 37.019517249983892 ], [ -86.451507654810527, 37.01975499982877 ], [ -86.450169012899835, 37.020424377591858 ], [ -86.450008630006977, 37.020906824449355 ], [ -86.449797293752269, 37.021216963809202 ], [ -86.44934971570521, 37.021605684983875 ], [ -86.44898100080718, 37.021799318807858 ], [ -86.448139193636564, 37.02199730351446 ], [ -86.447204632627489, 37.021936983966832 ], [ -86.446779077634602, 37.021998806982971 ], [ -86.445579978856316, 37.021997866573905 ], [ -86.445788263513876, 37.023238861949729 ], [ -86.44573667693578, 37.023595547208117 ], [ -86.445497501128429, 37.024097667921225 ], [ -86.445239408374249, 37.024391113756153 ], [ -86.444464415933766, 37.024966876008392 ], [ -86.443775382213644, 37.025312599615553 ], [ -86.443004582631886, 37.025533463777336 ], [ -86.44257304684632, 37.025605461469404 ], [ -86.442003374634908, 37.025594168471876 ], [ -86.441346592021276, 37.025740372190377 ], [ -86.440687047805028, 37.025724465590152 ], [ -86.440061664444244, 37.025555732491462 ], [ -86.439134719561636, 37.025092663791298 ], [ -86.438204940919618, 37.024998518115758 ], [ -86.437437676386224, 37.024681126306916 ], [ -86.436820899064287, 37.024865009724394 ], [ -86.435305393887973, 37.025048809242371 ], [ -86.43462494044411, 37.025005385724171 ], [ -86.433914750273885, 37.024776426968444 ], [ -86.433410626615753, 37.024797323170787 ], [ -86.432914999066767, 37.025044953507368 ], [ -86.432283548804136, 37.025217820659904 ], [ -86.431754512411672, 37.025313707012671 ], [ -86.431128008290074, 37.025317675904027 ], [ -86.430242523223498, 37.025066630924449 ], [ -86.429597562148913, 37.024589785027985 ], [ -86.429374213366444, 37.024285102726616 ], [ -86.429188103686712, 37.023777526244523 ], [ -86.429271984712301, 37.022989861953356 ], [ -86.428804202914378, 37.022642586192589 ], [ -86.428465918108756, 37.022188429583572 ], [ -86.428338609662219, 37.021850009586544 ], [ -86.428307270706981, 37.021321614180358 ], [ -86.428393950323013, 37.020975034065842 ], [ -86.428677489830207, 37.020453312493167 ], [ -86.429215536990867, 37.019972840668693 ], [ -86.429647136515754, 37.019442380067517 ], [ -86.430138297006621, 37.019093577380559 ], [ -86.430720954226615, 37.018876258099894 ], [ -86.431141923667354, 37.018809103522599 ], [ -86.431992951130994, 37.018870975088504 ], [ -86.4328781044171, 37.019265935128196 ], [ -86.433200089037243, 37.019550849874129 ], [ -86.433497803511557, 37.019992952963264 ], [ -86.434023453341723, 37.019773094969338 ], [ -86.43464715568507, 37.019670318506073 ], [ -86.435296063360127, 37.019712547696479 ], [ -86.435792667654482, 37.019848618563749 ], [ -86.436618278676278, 37.01946803019878 ], [ -86.437608242892594, 37.019314733287075 ], [ -86.438329377865031, 37.019028492780087 ], [ -86.439023608550144, 37.018931421135271 ], [ -86.439492497510983, 37.018960062352875 ], [ -86.439875778683344, 37.018633662953164 ], [ -86.439399314959019, 37.018167825618761 ], [ -86.439088034236107, 37.017526374837374 ], [ -86.438605771217723, 37.01717379507263 ], [ -86.438314179883349, 37.016839700771321 ], [ -86.438092949797507, 37.016382287704793 ], [ -86.43802948861304, 37.015916178373992 ], [ -86.438178409990641, 37.015275753173817 ], [ -86.438556573828819, 37.014761994048492 ], [ -86.438713639905245, 37.014035805152147 ], [ -86.43910402492854, 37.013476466478188 ], [ -86.439071506249348, 37.013012957143729 ], [ -86.439227321701395, 37.012454871497383 ], [ -86.439498923984402, 37.012004007553926 ], [ -86.439929347941202, 37.011619881171008 ], [ -86.44047049655795, 37.011351639910842 ], [ -86.440874234950115, 37.011245415647196 ], [ -86.441594426719902, 37.011211987066751 ], [ -86.442125730009465, 37.010999423662916 ], [ -86.442564931327652, 37.010916506373349 ], [ -86.443282306929305, 37.010911293776232 ], [ -86.443845873007973, 37.011001944316476 ], [ -86.444313882158085, 37.011181252392895 ], [ -86.444735887438654, 37.011138295638617 ], [ -86.445347454944113, 37.011190851623979 ], [ -86.445968549797868, 37.011397757535576 ], [ -86.446625142226878, 37.011868047654239 ], [ -86.447050999034616, 37.012615620148956 ], [ -86.447717453340772, 37.01235719778002 ], [ -86.44893672424422, 37.012089809399072 ], [ -86.450131314691802, 37.011989429466588 ], [ -86.450140078271218, 37.011432087534502 ], [ -86.449131311280752, 37.010896471240926 ], [ -86.448680646269153, 37.010527013155198 ], [ -86.44837921295138, 37.010070196240022 ], [ -86.44825178264432, 37.009563560349825 ], [ -86.44766964837855, 37.009129985979776 ], [ -86.447273458839646, 37.008569615458903 ], [ -86.44714701201687, 37.008052059608659 ], [ -86.447276844705456, 37.007358602660616 ], [ -86.44758723707821, 37.006893650636307 ], [ -86.448052117435722, 37.006520631123095 ], [ -86.448842018641898, 37.006219963928864 ], [ -86.449496293343103, 37.006166989112003 ], [ -86.450141688418483, 37.006268130277455 ], [ -86.45056754590486, 37.006432273769001 ], [ -86.452230330691506, 37.006542037760902 ], [ -86.453078117840832, 37.006862274398159 ], [ -86.453929012389494, 37.007620041319861 ], [ -86.454816402747397, 37.007755687426119 ], [ -86.455642923389121, 37.0081795483215 ], [ -86.456738528776953, 37.008053042012996 ], [ -86.456606636551356, 37.007524451436616 ], [ -86.456218893192613, 37.007160256497023 ], [ -86.455931504658693, 37.006639683828098 ], [ -86.455857412827896, 37.006122520643558 ], [ -86.455970655273788, 37.005609938682056 ], [ -86.456261786851201, 37.005144674411277 ], [ -86.456543270804275, 37.004880205152801 ], [ -86.457070497747395, 37.00457657627333 ], [ -86.457637947273511, 37.004415300191567 ], [ -86.457800159288468, 37.00394732580606 ], [ -86.45811079982218, 37.003495668830269 ], [ -86.458568187279994, 37.003133046967697 ], [ -86.458936555661481, 37.002955799647232 ], [ -86.459550748430814, 37.002802810379492 ], [ -86.460166227610983, 37.002793208874458 ], [ -86.46087027589698, 37.002918905722417 ], [ -86.461342197572662, 37.003117807773691 ], [ -86.462031268264127, 37.003702829161618 ], [ -86.46276821309911, 37.0050000914283 ], [ -86.463157606259898, 37.005269017209493 ], [ -86.463536596926104, 37.005705542687984 ], [ -86.464053810362543, 37.005667222310386 ], [ -86.464347390751669, 37.005614288267743 ], [ -86.46489871650472, 37.005275333326104 ], [ -86.465514077051637, 37.005094957302155 ], [ -86.466168150167107, 37.005064547812623 ], [ -86.466757058553227, 37.005139961845352 ], [ -86.466849994302578, 37.004680648397262 ], [ -86.467046570164726, 37.004312167514016 ], [ -86.467450498209473, 37.003789484204404 ], [ -86.467786839874407, 37.003499112462443 ], [ -86.468162940244909, 37.003253412583597 ], [ -86.468913458435424, 37.002931259836465 ], [ -86.469857904013722, 37.002751919644915 ] ], [ [ -86.460950868612798, 37.012027232171711 ], [ -86.461328531013351, 37.011976081777917 ], [ -86.46065713809206, 37.011454608522563 ], [ -86.460387467151463, 37.011024324663076 ], [ -86.460277828271785, 37.01064860981085 ], [ -86.459907278025426, 37.01053990746329 ], [ -86.460110236946349, 37.011450021652216 ], [ -86.460950868612798, 37.012027232171711 ] ] ] } },
{ "type": "Feature", "properties": { "zone_type": "riverine_lowland", "elev_threshold_ft": 450, "buffer_m": 200, "risk_tier": "critical" }, "geometry": { "type": "Polygon", "coordinates": [ [ [ -86.463909405115245, 36.981887921482638 ], [ -86.464673478752445, 36.981365206707203 ], [ -86.46518075440278, 36.981211526749597 ], [ -86.46575142377597, 36.981158137849945 ], [ -86.466686557745234, 36.981320607952739 ], [ -86.467328387915089, 36.981622711439819 ], [ -86.467741942234142, 36.981917598777024 ], [ -86.468046064220815, 36.98225244087164 ], [ -86.468400136965386, 36.982859861766975 ], [ -86.468534792159289, 36.983540981837457 ], [ -86.468293840566901, 36.984492089616758 ], [ -86.468042181479547, 36.984852976431291 ], [ -86.467643266070112, 36.985203598569569 ], [ -86.466830206023872, 36.985569195326782 ], [ -86.465810669040351, 36.985689635314209 ], [ -86.46445838517819, 36.985496265019805 ], [ -86.463667205800718, 36.985129117603243 ], [ -86.463278951876632, 36.984844799848986 ], [ -86.462810801411408, 36.984165753528067 ], [ -86.462721689316425, 36.983788667726976 ], [ -86.462760437536417, 36.983256870840215 ], [ -86.463170826219226, 36.982517294298816 ], [ -86.463909405115245, 36.981887921482638 ] ] ] } },
{ "type": "Feature", "properties": { "zone_type": "riverine_lowland", "elev_threshold_ft": 450, "buffer_m": 200, "risk_tier": "critical" }, "geometry": { "type": "Polygon", "coordinates": [ [ [ -86.434451086042216, 37.001968019433917 ], [ -86.435130080452936, 37.00356921674156 ], [ -86.43556371749888, 37.004272493691971 ], [ -86.435714149587824, 37.004953390610993 ], [ -86.435651402166769, 37.006105383706092 ], [ -86.435429117681849, 37.007405781066758 ], [ -86.435264766652736, 37.008177499110488 ], [ -86.434948250817598, 37.009062811998312 ], [ -86.434494234796688, 37.009906913086027 ], [ -86.43372424124081, 37.010755386905643 ], [ -86.432318670561074, 37.011822413375015 ], [ -86.431658268362511, 37.012221478695515 ], [ -86.430665991482996, 37.012673234339459 ], [ -86.4298642770909, 37.012992152064065 ], [ -86.428619703750186, 37.013398769975687 ], [ -86.427383051470514, 37.013679808599505 ], [ -86.426114497574218, 37.013732159399829 ], [ -86.425682887581885, 37.013660711735 ], [ -86.425147403909321, 37.013459817789432 ], [ -86.420900963143026, 37.014002025752127 ], [ -86.419865649517305, 37.01388216461249 ], [ -86.418690955344957, 37.013561754786615 ], [ -86.416736287686803, 37.01272211688876 ], [ -86.415646658127343, 37.013252285113715 ], [ -86.414079022930579, 37.013749086988945 ], [ -86.413455289515582, 37.014044774260263 ], [ -86.412414897883053, 37.014339130928747 ], [ -86.411081869609262, 37.014850917224521 ], [ -86.408330021009192, 37.015644445933958 ], [ -86.405831229256307, 37.016829617141298 ], [ -86.40435459745261, 37.017908227423028 ], [ -86.402359636167461, 37.019563188715935 ], [ -86.400410089529217, 37.020597718369324 ], [ -86.399618303883997, 37.02080902764564 ], [ -86.399478189818169, 37.021439142949752 ], [ -86.399158765555356, 37.021902067948233 ], [ -86.398108195577265, 37.022826882071179 ], [ -86.397445124601717, 37.023169726148893 ], [ -86.396806421555596, 37.023302494151352 ], [ -86.395963978648808, 37.023328386553345 ], [ -86.394903365846957, 37.023144095405669 ], [ -86.393970637378843, 37.023351983190445 ], [ -86.392837301313023, 37.023419840643491 ], [ -86.391975031971171, 37.023290259921012 ], [ -86.391358243632126, 37.022989817939518 ], [ -86.39031690849211, 37.023197040297049 ], [ -86.389310060278959, 37.023034421869994 ], [ -86.388249233767624, 37.023214551501148 ], [ -86.387512609401909, 37.023143736483057 ], [ -86.38691304065064, 37.0229228733591 ], [ -86.386569238463338, 37.022701723641525 ], [ -86.386001651226024, 37.02205258952938 ], [ -86.38587208581481, 37.021714791233528 ], [ -86.385814519390138, 37.021164695939731 ], [ -86.386066840641945, 37.020137648253076 ], [ -86.386550645948304, 37.019467625277734 ], [ -86.387277167562445, 37.019029206529488 ], [ -86.387676880040459, 37.018586821608764 ], [ -86.388272231840389, 37.018216084554638 ], [ -86.388408678834111, 37.017818339805608 ], [ -86.388744348740971, 37.017362874224602 ], [ -86.389469371635528, 37.016893835009625 ], [ -86.389604881216357, 37.016559808855433 ], [ -86.389534976842029, 37.015774728473161 ], [ -86.389750074268832, 37.015192291323764 ], [ -86.390244527685496, 37.014579420463107 ], [ -86.390904406377132, 37.014066837877856 ], [ -86.391158104340875, 37.013677406051528 ], [ -86.391249184121449, 37.012913396676943 ], [ -86.391499624801881, 37.012283728999471 ], [ -86.391959781589236, 37.011541039696965 ], [ -86.392615466048397, 37.011033919972512 ], [ -86.394497706730675, 37.010481563062498 ], [ -86.395130346832389, 37.010437788617132 ], [ -86.395789586953995, 37.010539596135757 ], [ -86.396548779827455, 37.010876236545649 ], [ -86.397184976991298, 37.011448140513011 ], [ -86.397585326746537, 37.012271122626181 ], [ -86.397630745007945, 37.01285037061097 ], [ -86.398484730184236, 37.012957229539303 ], [ -86.399321618057243, 37.013291627976031 ], [ -86.400779141242708, 37.013402297056388 ], [ -86.401697906908893, 37.013056741129482 ], [ -86.402656699462824, 37.012999871283732 ], [ -86.403590707485407, 37.012720287874671 ], [ -86.40450353392724, 37.012590115522087 ], [ -86.408015667226238, 37.011610316257013 ], [ -86.409795851011708, 37.011021612812215 ], [ -86.410698722894139, 37.010859978827597 ], [ -86.413159020539638, 37.010103233952123 ], [ -86.414537925143705, 37.009515348950721 ], [ -86.416186477409013, 37.008946509793681 ], [ -86.416768950593351, 37.008834766310585 ], [ -86.417664709082587, 37.008540037546524 ], [ -86.41899857922499, 37.008283634827293 ], [ -86.419294120226908, 37.007868518291396 ], [ -86.419599506016795, 37.007602860591703 ], [ -86.420327602740514, 37.007255688821566 ], [ -86.420995396853044, 37.007148127323426 ], [ -86.421466778618097, 37.007168200725573 ], [ -86.422494443236104, 37.007478964563667 ], [ -86.423041968797733, 37.007146019041564 ], [ -86.423650056497848, 37.006967200200023 ], [ -86.424292665944932, 37.006934594440523 ], [ -86.424845103666371, 37.007028238067463 ], [ -86.425367417879599, 37.006816803782975 ], [ -86.425264763944668, 37.005902440360259 ], [ -86.425372471589725, 37.005522644774565 ], [ -86.42560030872157, 37.005145037137439 ], [ -86.425609540800835, 37.004769604339195 ], [ -86.42550996384692, 37.004685468374213 ], [ -86.424894471621812, 37.004898621625131 ], [ -86.424218959126932, 37.004978425536869 ], [ -86.423608728198488, 37.004911966540348 ], [ -86.423099758632603, 37.004746463574214 ], [ -86.422874375642792, 37.004762150022465 ], [ -86.420914965358264, 37.005252227196749 ], [ -86.419736815448175, 37.005339177884423 ], [ -86.419009443335113, 37.005484128881022 ], [ -86.41826172219956, 37.00547005408778 ], [ -86.417460962677424, 37.005789171027139 ], [ -86.417021104393584, 37.006204734271215 ], [ -86.41649354173525, 37.00649563416178 ], [ -86.415885120693133, 37.006655456694702 ], [ -86.415280123657766, 37.006673046845776 ], [ -86.414015384569083, 37.007393172352224 ], [ -86.413410288853697, 37.007583657705638 ], [ -86.412792068340977, 37.007657191806402 ], [ -86.408026886755053, 37.009664243032795 ], [ -86.405525933461661, 37.010228661373148 ], [ -86.402128806260279, 37.010274338675764 ], [ -86.399785378443269, 37.010102955157748 ], [ -86.396345373385358, 37.00922866343236 ], [ -86.393969615604192, 37.008350700103605 ], [ -86.392631128067165, 37.007539042212414 ], [ -86.391604419597257, 37.006489182370963 ], [ -86.390743161946148, 37.004952444893291 ], [ -86.390224059638285, 37.004806890241014 ], [ -86.389653324104131, 37.004484826258114 ], [ -86.389358710609457, 37.00420827065934 ], [ -86.389068539847372, 37.003743169916369 ], [ -86.38892333812035, 37.00311620435626 ], [ -86.388933917314048, 37.002309047730833 ], [ -86.389127341302768, 37.001785489149476 ], [ -86.389667204973733, 37.000980636534209 ], [ -86.389982696950881, 37.000046499954109 ], [ -86.389524608114144, 36.999419154412266 ], [ -86.38940795010042, 36.998900812282763 ], [ -86.389440052894543, 36.998531198002169 ], [ -86.389805017720789, 36.997813254718537 ], [ -86.390083136260799, 36.997528580559276 ], [ -86.390580974835686, 36.99720918716072 ], [ -86.390601984590347, 36.996904527163267 ], [ -86.390540788488622, 36.996337118556433 ], [ -86.390078723802517, 36.994456259555506 ], [ -86.389576204188288, 36.99351835737297 ], [ -86.389157440157049, 36.992969825383454 ], [ -86.389016662862389, 36.99218264181394 ], [ -86.388484757921177, 36.99125676195986 ], [ -86.388229580176642, 36.990970291176907 ], [ -86.387400994748788, 36.990677567138583 ], [ -86.386979513049113, 36.990667806163216 ], [ -86.386519447833138, 36.990688427144875 ], [ -86.38568146097488, 36.990961396332217 ], [ -86.385003127917741, 36.990978062480472 ], [ -86.38358347076931, 36.991631942026999 ], [ -86.381987887383119, 36.992233786805365 ], [ -86.380068431816412, 36.992761421456329 ], [ -86.378997895413107, 36.992895630632788 ], [ -86.37870049933143, 36.993256811927424 ], [ -86.37821330865043, 36.993621355213392 ], [ -86.377677322195794, 36.993895577206743 ], [ -86.377259297088301, 36.994009674550298 ], [ -86.3765817681725, 36.994052312899079 ], [ -86.376134634126373, 36.993989022867851 ], [ -86.3755162208586, 36.993762949137135 ], [ -86.375114860535717, 36.993491056056527 ], [ -86.373620846373228, 36.993944006807006 ], [ -86.372312044655615, 36.994197512101032 ], [ -86.372152480556423, 36.994208649531494 ], [ -86.371916161520033, 36.994215839670517 ], [ -86.371429710950792, 36.994200367333654 ], [ -86.370970633777219, 36.994223544853938 ], [ -86.369906472886498, 36.994193630588569 ], [ -86.368922717894776, 36.994047980549432 ], [ -86.368143350076451, 36.993790082632607 ], [ -86.367533181340448, 36.993381322794185 ], [ -86.367168332827021, 36.992897565807766 ], [ -86.366661716584801, 36.992453952979204 ], [ -86.366341281342898, 36.991799172334396 ], [ -86.366306271821742, 36.991446875777804 ], [ -86.366415181581786, 36.990925082116775 ], [ -86.367204711346361, 36.9898527257346 ], [ -86.366867479513871, 36.989279240107557 ], [ -86.36678828434674, 36.988595977692341 ], [ -86.367034629256224, 36.987934151037827 ], [ -86.367427078901798, 36.987504563383915 ], [ -86.367378008615873, 36.987000328392597 ], [ -86.367469960111634, 36.986438947972694 ], [ -86.368000216576064, 36.985607553081692 ], [ -86.368313523114779, 36.985359099469946 ], [ -86.368881132057851, 36.985089734224509 ], [ -86.369742096194713, 36.984956483139122 ], [ -86.370180260130141, 36.984993148912416 ], [ -86.370796517168515, 36.985172941053776 ], [ -86.371678684728693, 36.984905057443257 ], [ -86.372749007419287, 36.984857543111978 ], [ -86.373392349741692, 36.98460567665937 ], [ -86.374012915100678, 36.984531101198499 ], [ -86.375358053243772, 36.983974997694993 ], [ -86.3759264422835, 36.98387517683863 ], [ -86.3764105353942, 36.983879156702507 ], [ -86.377095021735016, 36.983351613163052 ], [ -86.378358584653668, 36.98294919767941 ], [ -86.379776568822365, 36.982975808690561 ], [ -86.380656242289064, 36.983216231640313 ], [ -86.38115933805723, 36.983041730844811 ], [ -86.38162423546963, 36.982973882382915 ], [ -86.382452152481335, 36.983041750157547 ], [ -86.383088464814975, 36.98328009508802 ], [ -86.384126642532351, 36.983900300252806 ], [ -86.384590888376692, 36.98426817502925 ], [ -86.386017396430731, 36.983977199889857 ], [ -86.387375053983305, 36.984143738616197 ], [ -86.387764572841064, 36.983787485347314 ], [ -86.388163339806482, 36.98355873451596 ], [ -86.389113870287247, 36.9833125274221 ], [ -86.389812645759946, 36.98334520258372 ], [ -86.390588537291876, 36.983602641139278 ], [ -86.391317324456182, 36.984181542362037 ], [ -86.391716556935791, 36.984972978866601 ], [ -86.393113137170772, 36.985445969594572 ], [ -86.394288987807641, 36.986197824571661 ], [ -86.39545404824473, 36.98728936447182 ], [ -86.396623057647929, 36.988967704263437 ], [ -86.397381432972622, 36.990894312946565 ], [ -86.397676802279946, 36.992581816686354 ], [ -86.397777714821913, 36.993728285392869 ], [ -86.398407180622243, 36.996279785363953 ], [ -86.398602695570574, 36.998982147774015 ], [ -86.398748835934072, 36.999854787488097 ], [ -86.399049904999345, 37.000676799894094 ], [ -86.398915511556893, 37.001797654715467 ], [ -86.399281916109231, 37.002335782406149 ], [ -86.399949882080151, 37.002655711131204 ], [ -86.400478850074862, 37.003156797943504 ], [ -86.401578214816794, 37.003689498654346 ], [ -86.402075558144276, 37.00375038740976 ], [ -86.403076362915186, 37.003648580932143 ], [ -86.403862450676399, 37.003756849594765 ], [ -86.404677322405547, 37.003479864977713 ], [ -86.405162655604173, 37.002988157159116 ], [ -86.405733045072395, 37.002611523795601 ], [ -86.406465332923219, 37.001893489163514 ], [ -86.407341666010367, 37.001473423203393 ], [ -86.408085737058926, 37.001314303096343 ], [ -86.408329734849474, 37.001184609080759 ], [ -86.409263199638175, 37.00077248708044 ], [ -86.409941560728257, 37.000232735495757 ], [ -86.410605955894695, 36.999832406824694 ], [ -86.410989571246773, 36.999404933267655 ], [ -86.411488427632975, 36.999050788694497 ], [ -86.412083721704604, 36.998830777414099 ], [ -86.412742374509989, 36.998731192691878 ], [ -86.413425329794364, 36.998368448949208 ], [ -86.413720561632587, 36.997786266738984 ], [ -86.414232835783608, 36.997334430039352 ], [ -86.41386517924542, 36.99588126188516 ], [ -86.413980640210312, 36.995165991237883 ], [ -86.414515147913392, 36.99444977028368 ], [ -86.415183865793267, 36.993987305203675 ], [ -86.415838363804937, 36.993790764199886 ], [ -86.416346428937757, 36.99374853355198 ], [ -86.416997784348851, 36.993823532600111 ], [ -86.417417474537302, 36.993961809037096 ], [ -86.418120813083419, 36.994432403011871 ], [ -86.418470660945118, 36.99493509711143 ], [ -86.419183804590318, 36.995680274263762 ], [ -86.419369454267311, 36.995670179743421 ], [ -86.420733504084851, 36.994258364699625 ], [ -86.421401109309414, 36.993725929546763 ], [ -86.422019621053977, 36.993466431935779 ], [ -86.422669454062884, 36.993341208742351 ], [ -86.423172947195695, 36.993155296138532 ], [ -86.423821727195488, 36.993071888451254 ], [ -86.424472855150668, 36.993142549640929 ], [ -86.42507068423761, 36.993361240882301 ], [ -86.425697782393854, 36.993849158075285 ], [ -86.425988509439406, 36.994321814714489 ], [ -86.426096398141652, 36.994841716511864 ], [ -86.425992046894052, 36.995505832489719 ], [ -86.425744754080625, 36.995982946694177 ], [ -86.425240633608738, 36.99645155859514 ], [ -86.426068712260118, 36.996456683208358 ], [ -86.4267361133588, 36.996632510967764 ], [ -86.42730119647041, 36.996963347389304 ], [ -86.427768835811278, 36.997518147820635 ], [ -86.428544230937462, 36.997769713025114 ], [ -86.431012308585551, 36.998822848472649 ], [ -86.431442693539253, 36.999208362130751 ], [ -86.432532349115334, 36.999946978910266 ], [ -86.433660522753044, 37.000983803502045 ], [ -86.434451086042216, 37.001968019433917 ] ], [ [ -86.43020427993423, 37.012850343315854 ], [ -86.430203856629305, 37.012850574755376 ], [ -86.43020503920124, 37.012849979575726 ], [ -86.43020427993423, 37.012850343315854 ] ], [ [ -86.40827465018603, 37.00122456926664 ], [ -86.408275219342826, 37.00122432839153 ], [ -86.408276611782952, 37.001223659455626 ], [ -86.40827465018603, 37.00122456926664 ] ], [ [ -86.37211663091054, 36.994207572109083 ], [ -86.372114227010329, 36.994207542854717 ], [ -86.372091921078976, 36.994208673902307 ], [ -86.37211663091054, 36.994207572109083 ] ] ] } },
{ "type": "Feature", "properties": { "zone_type": "riverine_lowland", "elev_threshold_ft": 450, "buffer_m": 200, "risk_tier": "critical" }, "geometry": { "type": "Polygon", "coordinates": [ [ [ -86.408364654133621, 36.948518250128615 ], [ -86.408352529590672, 36.948531448520463 ], [ -86.408330436798096, 36.948553132331661 ], [ -86.408364654133621, 36.948518250128615 ] ] ] } },
{ "type": "Feature", "properties": { "zone_type": "riverine_lowland", "elev_threshold_ft": 450, "buffer_m": 200, "risk_tier": "critical" }, "geometry": { "type": "Polygon", "coordinates": [ [ [ -86.405204142858594, 36.941077913600239 ], [ -86.405666310525433, 36.940700711099538 ], [ -86.406244983587129, 36.940447438205382 ], [ -86.406890329231857, 36.940339905344182 ], [ -86.407546774279012, 36.940387372597336 ], [ -86.408085177232536, 36.940553262903251 ], [ -86.408630420161558, 36.940840921460833 ], [ -86.409108418792655, 36.941232152771818 ], [ -86.409570934214884, 36.941753777479455 ], [ -86.409861637359199, 36.942219024048732 ], [ -86.410193587288404, 36.943014415267676 ], [ -86.410423045848376, 36.944289885573625 ], [ -86.410227706597041, 36.945602968032986 ], [ -86.40957357071342, 36.947056870736368 ], [ -86.409469248790074, 36.947232261678458 ], [ -86.40933371787419, 36.947431590770513 ], [ -86.409037568134579, 36.947796779590796 ], [ -86.408314219774809, 36.948569049135131 ], [ -86.406385662216167, 36.950324260813773 ], [ -86.405499613708614, 36.951453786693847 ], [ -86.403903153277753, 36.952478726926742 ], [ -86.402862465474442, 36.952977179805465 ], [ -86.401787027746337, 36.953190249967037 ], [ -86.40068447497066, 36.953601347256914 ], [ -86.399666058698969, 36.953745605445683 ], [ -86.399092146652393, 36.954009559498417 ], [ -86.398633108015744, 36.954128065514418 ], [ -86.396686794832036, 36.954379883722211 ], [ -86.395880814606784, 36.954308273631625 ], [ -86.39506539167823, 36.95400042131805 ], [ -86.393924708427107, 36.954091327545754 ], [ -86.392472969874532, 36.953813592396976 ], [ -86.391104661029942, 36.953704167644652 ], [ -86.391385445559081, 36.954106485630462 ], [ -86.391548100234274, 36.95466571778546 ], [ -86.392200192367383, 36.954926809156916 ], [ -86.392756674666771, 36.955389084392678 ], [ -86.3930680437512, 36.955944129117704 ], [ -86.393138751516872, 36.956425878750764 ], [ -86.39395007841793, 36.956391620213502 ], [ -86.39481022292189, 36.956607028510376 ], [ -86.395476882587161, 36.95705278262416 ], [ -86.395810187992126, 36.957503046514042 ], [ -86.395936136770572, 36.957837963711647 ], [ -86.395968858066041, 36.95836102803932 ], [ -86.395672453707974, 36.95943181173957 ], [ -86.395346867417658, 36.960061653278693 ], [ -86.39491537966363, 36.960482313415071 ], [ -86.394512965949616, 36.960722255967497 ], [ -86.39390408414954, 36.960922758112645 ], [ -86.393224388389129, 36.960990218574338 ], [ -86.392653132343227, 36.960946094247966 ], [ -86.391851930799575, 36.960674716155232 ], [ -86.390931043849719, 36.960166922435889 ], [ -86.390483517798614, 36.959805281992253 ], [ -86.390168096804942, 36.959335977580743 ], [ -86.39005687972471, 36.958990035048309 ], [ -86.390032854266849, 36.958633285234015 ], [ -86.390135188298075, 36.958175603223978 ], [ -86.389558968917839, 36.957963463599413 ], [ -86.389033733235394, 36.957587767930896 ], [ -86.388655792803334, 36.957059997147432 ], [ -86.388514238328511, 36.956495160344943 ], [ -86.38797652281707, 36.956267014837032 ], [ -86.387641047597967, 36.956029416570182 ], [ -86.387156427600644, 36.955378347153406 ], [ -86.387035047216656, 36.954808542399526 ], [ -86.387169914026998, 36.954175448029346 ], [ -86.387664395032829, 36.953531351609158 ], [ -86.388241804738328, 36.953182674932556 ], [ -86.388106524377321, 36.953137598856941 ], [ -86.387611287254217, 36.953390144984233 ], [ -86.387190948560118, 36.953963542121052 ], [ -86.386888527960338, 36.954224896513217 ], [ -86.38602375652637, 36.954614398751225 ], [ -86.385650294297946, 36.954931195627566 ], [ -86.3853398337139, 36.955757646388001 ], [ -86.384950019747478, 36.956332474978986 ], [ -86.385661307264556, 36.956387500366098 ], [ -86.386441651179808, 36.956667264592923 ], [ -86.387125349424196, 36.957148473739245 ], [ -86.387486543004428, 36.957530582249859 ], [ -86.387699619854516, 36.957892031076611 ], [ -86.387806446290398, 36.958263897249147 ], [ -86.387861088855132, 36.959095710190283 ], [ -86.38780504423481, 36.959832013123979 ], [ -86.387506531700112, 36.96052914461459 ], [ -86.387088015176715, 36.960984760498711 ], [ -86.386556856934675, 36.961298162102835 ], [ -86.386149280711663, 36.961432056214917 ], [ -86.385716984107091, 36.961499567564502 ], [ -86.385058634657739, 36.961471415472055 ], [ -86.384438819517101, 36.961291111691736 ], [ -86.383996304295437, 36.96103680921339 ], [ -86.38325508450167, 36.960967650981758 ], [ -86.381473167859426, 36.960499548072598 ], [ -86.380924074889364, 36.960209834654371 ], [ -86.380213249325493, 36.959623526606975 ], [ -86.37947008374833, 36.958846006743663 ], [ -86.378878408327296, 36.957939390518256 ], [ -86.378399741877516, 36.956679035146642 ], [ -86.378296746999595, 36.955748641092221 ], [ -86.377381139164967, 36.955500332134129 ], [ -86.376728996251813, 36.955163176582452 ], [ -86.376309945900744, 36.954754762404889 ], [ -86.376056668386283, 36.954266308685547 ], [ -86.375974637016057, 36.953298231624075 ], [ -86.376177383913017, 36.952717913245642 ], [ -86.375881036547952, 36.952119365484805 ], [ -86.375821255852372, 36.951002233316537 ], [ -86.376068779091895, 36.950327438374771 ], [ -86.376564238436146, 36.949810204787752 ], [ -86.377386225920304, 36.949408684779073 ], [ -86.378490330880211, 36.94920675130065 ], [ -86.379545492416042, 36.949287905467969 ], [ -86.381225027663675, 36.949897975600614 ], [ -86.381653818212996, 36.94962808162461 ], [ -86.382327659403103, 36.949404143110684 ], [ -86.382811859125923, 36.949355858316288 ], [ -86.383493270569886, 36.949429525295848 ], [ -86.384207948924569, 36.948961071298676 ], [ -86.384773781209432, 36.948748381750896 ], [ -86.385391653222101, 36.948618007073826 ], [ -86.386260415164514, 36.947759987418323 ], [ -86.387122186944765, 36.947282900808609 ], [ -86.387961856904553, 36.947032260984351 ], [ -86.389365486890981, 36.946904472436884 ], [ -86.390019704194273, 36.94693220280417 ], [ -86.390438206414885, 36.947034889669901 ], [ -86.391223478117396, 36.947476821000969 ], [ -86.392031870222596, 36.947681116773524 ], [ -86.393788239718816, 36.948748617668123 ], [ -86.394385209684927, 36.94900537628871 ], [ -86.395257441219755, 36.949039980899329 ], [ -86.399001278193367, 36.947521532552713 ], [ -86.39931741177341, 36.947425329308786 ], [ -86.40100114262998, 36.94667867214833 ], [ -86.401597629064369, 36.946564805536489 ], [ -86.402263623023089, 36.946590989981445 ], [ -86.403004280958683, 36.946385748774766 ], [ -86.403897406951387, 36.946417622736043 ], [ -86.404389710550234, 36.946056114759784 ], [ -86.404405634127443, 36.945484468600064 ], [ -86.404661850907999, 36.944927070313597 ], [ -86.404592287984116, 36.944521728056614 ], [ -86.404636372589678, 36.943957878022587 ], [ -86.404764483502007, 36.943607710483676 ], [ -86.405096714339493, 36.943127202522199 ], [ -86.404800328670561, 36.94241913692867 ], [ -86.404794852138124, 36.94189009171712 ], [ -86.404898282177101, 36.941546562808824 ], [ -86.405204142858594, 36.941077913600239 ] ], [ [ -86.409390644544757, 36.947345020573849 ], [ -86.409390458749854, 36.947345303118418 ], [ -86.409391315487383, 36.947344127403888 ], [ -86.409390644544757, 36.947345020573849 ] ], [ [ -86.396865647241157, 36.948391200404778 ], [ -86.396868527058203, 36.948389858357011 ], [ -86.396835688695319, 36.948401236800841 ], [ -86.396865647241157, 36.948391200404778 ] ], [ [ -86.395824435753937, 36.948830579949735 ], [ -86.395825735990925, 36.948830031489685 ], [ -86.395823991461185, 36.948830725285816 ], [ -86.395824435753937, 36.948830579949735 ] ], [ [ -86.392791065231904, 36.960926727886381 ], [ -86.392791115796854, 36.960926537987881 ], [ -86.392783576563829, 36.96092531065046 ], [ -86.392791065231904, 36.960926727886381 ] ] ] } },
{ "type": "Feature", "properties": { "zone_type": "riverine_lowland", "elev_threshold_ft": 450, "buffer_m": 200, "risk_tier": "critical" }, "geometry": { "type": "Polygon", "coordinates": [ [ [ -86.398795445679795, 36.906438951372195 ], [ -86.399164449168694, 36.907248594702338 ], [ -86.399367360384915, 36.908219599287108 ], [ -86.39931491898075, 36.909099762802761 ], [ -86.399086886741202, 36.910269070746942 ], [ -86.398453556117488, 36.912383195006562 ], [ -86.397886168337095, 36.91324570807236 ], [ -86.397272033669182, 36.913829087018378 ], [ -86.394798373267022, 36.91537327931357 ], [ -86.393091373914828, 36.916176266180571 ], [ -86.391238742972178, 36.916896797407759 ], [ -86.390336133908207, 36.916984080188804 ], [ -86.38938877718202, 36.916816362553597 ], [ -86.388675192043422, 36.916972564663169 ], [ -86.387614420889918, 36.917020824237269 ], [ -86.386912367949293, 36.916905743212986 ], [ -86.386165725464963, 36.916537778988754 ], [ -86.385651295365406, 36.915968395557719 ], [ -86.385447392152784, 36.915284279664462 ], [ -86.385632874001317, 36.914219344524966 ], [ -86.386052514346176, 36.913601868577402 ], [ -86.386544520943289, 36.913249981081769 ], [ -86.387210679149376, 36.912995935948757 ], [ -86.389164094207402, 36.91275831017758 ], [ -86.390233081907311, 36.912800495463721 ], [ -86.390599816876858, 36.912713811503998 ], [ -86.391924809506833, 36.912145599184974 ], [ -86.393715233893545, 36.911074051339384 ], [ -86.394463839372861, 36.908768226064261 ], [ -86.394408607983877, 36.908170867623525 ], [ -86.393069636749729, 36.906573221585617 ], [ -86.392879598448445, 36.906548271355305 ], [ -86.392340809756689, 36.906854313574833 ], [ -86.391827808159647, 36.907017511128217 ], [ -86.391237523372325, 36.907081642785748 ], [ -86.390632092679297, 36.907047631214759 ], [ -86.389258396466275, 36.906690804361155 ], [ -86.388751228294439, 36.906439259858388 ], [ -86.388229553241075, 36.906044225965566 ], [ -86.387818026151265, 36.905403704317052 ], [ -86.387739738432515, 36.905046992530558 ], [ -86.387780824643258, 36.904555233505505 ], [ -86.387407676195906, 36.903978307772739 ], [ -86.387310755349162, 36.903455523379506 ], [ -86.387507420052557, 36.902691481963139 ], [ -86.3880857148649, 36.902031336977551 ], [ -86.389169297022647, 36.901396183345206 ], [ -86.390193828209121, 36.900965995726466 ], [ -86.390900233087848, 36.900797967016963 ], [ -86.391871674730012, 36.900788599730824 ], [ -86.392847953543708, 36.900980406576295 ], [ -86.393562517577607, 36.901224974852532 ], [ -86.394729800928118, 36.901880618499725 ], [ -86.395599737399721, 36.902651174341578 ], [ -86.398274934320483, 36.905575603965957 ], [ -86.398795445679795, 36.906438951372195 ] ] ] } }
]
}
